STARLINK-5780           
1 57150U 23090BB  26193.26515973  .00000164  00000+0  15505-4 0  9991
2 57150  43.0025 286.7898 0001744 272.6277  87.4374 15.27577374169514
STARLINK-5776           
1 57151U 23090BC  26193.25972458 -.00000184  00000+0  28374-5 0  9998
2 57151  43.0013 279.9256 0000816 275.5404  84.5355 15.27585742169590
STARLINK-6164           
1 57152U 23090BD  26193.63790741  .00000368  00000+0  22890-4 0  9993
2 57152  43.0031 277.6055 0001688 271.4606  88.6052 15.27573322169657
STARLINK-5879           
1 57153U 23090BE  26193.27001088 -.00000424  00000+0 -58858-5 0  9992
2 57153  43.0023 268.6949 0001840 283.7358  76.3289 15.27573587169223
STARLINK-6106           
1 57154U 23090BF  26193.72513786 -.00000068  00000+0  70489-5 0  9993
2 57154  43.0012 277.3976 0001067 274.8487  85.2242 15.27575747169660
STARLINK-6108           
1 57155U 23090BG  26193.28541932 -.00000408  00000+0 -53191-5 0  9999
2 57155  43.0042 280.1162 0001087 243.7668 116.3072 15.27574352169591
STARLINK-6137           
1 57156U 23090BH  26193.83335647  .01212736  00000+0  13948-1 0  9995
2 57156  43.0038 273.5739 0002079 267.8851 220.3511 15.58739022  5747
STARLINK-5525           
1 57218U 23094A   26192.90280845 -.00000938  00000+0 -24589-4 0  9990
2 57218  43.0022  49.1171 0001035 271.2993  88.7740 15.27572487166118
STARLINK-5520           
1 57219U 23094B   26193.62542464  .00001429  00000+0  61448-4 0  9998
2 57219  43.0028  48.4842 0001079 250.7685 109.3049 15.27572547166186
STARLINK-5880           
1 57220U 23094C   26192.97798210 -.00000531  00000+0 -97571-5 0  9991
2 57220  43.0045  52.2263 0000888 276.8827  83.1924 15.27586434166081
STARLINK-5870           
1 57222U 23094E   26193.01944582 -.00001106  00000+0 -30677-4 0  9996
2 57222  43.0035  48.2676 0001108 281.0983  78.9744 15.27584735166761
STARLINK-5519           
1 57223U 23094F   26193.22155560 -.00000878  00000+0 -22398-4 0  9996
2 57223  42.9999  50.6202 0001065 269.9688  90.1041 15.27572613166128
STARLINK-5983           
1 57224U 23094G   26193.61178194 -.00000029  00000+0  84810-5 0  9993
2 57224  43.0013  44.9706 0001368 274.7424  85.3271 15.27578139166222
STARLINK-6294           
1 57225U 23094H   26193.00802456 -.00001204  00000+0 -34212-4 0  9999
2 57225  43.0033  49.0385 0001643 264.9206  95.1458 15.27586430166127
STARLINK-6350           
1 57226U 23094J   26192.99388921  .00000101  00000+0  13217-4 0  9998
2 57226  43.0057  48.9347 0001703 266.6741  93.3916 15.27578179166120
STARLINK-5996           
1 57227U 23094K   26193.02923736  .00001008  00000+0  46160-4 0  9993
2 57227  42.9985  51.7490 0000643 345.1717  14.9115 15.27571923166094
STARLINK-6230           
1 57228U 23094L   26193.59764375 -.00000710  00000+0 -16257-4 0  9993
2 57228  43.0031  44.8672 0001541 259.9996 100.0682 15.27578337166220
STARLINK-6233           
1 57229U 23094M   26192.99774944 -.00000395  00000+0 -48162-5 0  9990
2 57229  43.0034  48.9679 0001405 284.0577  76.0119 15.27579383166127
STARLINK-6250           
1 57230U 23094N   26193.65418225 -.00000704  00000+0 -16039-4 0  9994
2 57230  43.0035  45.2917 0001792 269.6341  90.4305 15.27577974166224
STARLINK-5840           
1 57231U 23094P   26193.64390516 -.00000771  00000+0 -18514-4 0  9990
2 57231  43.0014  45.2104 0000660 237.1445 122.9343 15.27576306166229
STARLINK-5872           
1 57232U 23094Q   26192.98489852  .00000440  00000+0  25502-4 0  9995
2 57232  43.0053  48.8595 0001384 269.9596  90.1097 15.27580650166780
STARLINK-5866           
1 57233U 23094R   26192.97846960  .00000079  00000+0  12400-4 0  9993
2 57233  43.0030  48.8221 0001560 264.2454  95.8220 15.27574182166120
STARLINK-6368           
1 57234U 23094S   26193.01816184 -.00000536  00000+0 -99704-5 0  9998
2 57234  43.0044  48.2471 0001028 264.4328  95.6406 15.27582181166131
STARLINK-6360           
1 57235U 23094T   26193.62847958 -.00000233  00000+0  10794-5 0  9994
2 57235  43.0048  45.0973 0001434 265.4264  94.6424 15.27578730166223
STARLINK-6315           
1 57236U 23094U   26193.80295370 -.00000171  00000+0  33106-5 0  9993
2 57236  43.0046  33.3935 0001340 267.4888  92.5810 15.27573151166374
STARLINK-6365           
1 57237U 23094V   26193.66668980 -.00004815  00000+0 -16554-3 0  9995
2 57237  43.0009  44.7590 0001097 254.3760   5.5710 15.27585618  5769
STARLINK-6334           
1 57238U 23094W   26193.55553851  .00000783  00000+0  37974-4 0  9992
2 57238  43.0053  34.9660 0001793 275.1848  84.8799 15.27582071166337
STARLINK-6330           
1 57239U 23094X   26193.02201319  .00000086  00000+0  12643-4 0  9996
2 57239  43.0028  48.2782 0001331 260.5783  99.4918 15.27573046166132
STARLINK-6351           
1 57240U 23094Y   26192.98233923  .00000723  00000+0  35785-4 0  9998
2 57240  43.0041  37.5468 0001502 246.9832 113.0861 15.27582565166253
STARLINK-6349           
1 57241U 23094Z   26192.95678665 -.00001510  00000+0 -45367-4 0  9996
2 57241  43.0041  38.2229 0001252 268.4465  91.6243 15.27571354166248
