OBJECT_NAME,OBJECT_ID,EPOCH,MEAN_MOTION,ECCENTRICITY,INCLINATION,RA_OF_ASC_NODE,ARG_OF_PERICENTER,MEAN_ANOMALY,EPHEMERIS_TYPE,CLASSIFICATION_TYPE,NORAD_CAT_ID,ELEMENT_SET_NO,REV_AT_EPOCH,BSTAR,MEAN_MOTION_DOT,MEAN_MOTION_DDOT
STARLINK-5780,2023-090BB,2026-07-12T06:21:49.800672,15.27577374,.0001744,43.0025,286.7898,272.6277,87.4374,0,U,57150,999,16951,.15505E-4,.164E-5,0
STARLINK-5776,2023-090BC,2026-07-12T06:14:00.203712,15.27585742,.0000816,43.0013,279.9256,275.5404,84.5355,0,U,57151,999,16959,.28374E-5,-.184E-5,0
STARLINK-6164,2023-090BD,2026-07-12T15:18:35.200224,15.27573322,.0001688,43.0031,277.6055,271.4606,88.6052,0,U,57152,999,16965,.2289E-4,.368E-5,0
STARLINK-5879,2023-090BE,2026-07-12T06:28:48.940032,15.27573587,.000184,43.0023,268.6949,283.7358,76.3289,0,U,57153,999,16922,-.58858E-5,-.424E-5,0
STARLINK-6106,2023-090BF,2026-07-12T17:24:11.911104,15.27575747,.0001067,43.0012,277.3976,274.8487,85.2242,0,U,57154,999,16966,.70489E-5,-.68E-6,0
STARLINK-6108,2023-090BG,2026-07-12T06:51:00.229248,15.27574352,.0001087,43.0042,280.1162,243.7668,116.3072,0,U,57155,999,16959,-.53191E-5,-.408E-5,0
STARLINK-6137,2023-090BH,2026-07-12T20:00:01.999008,15.58739022,.0002079,43.0038,273.5739,267.8851,220.3511,0,U,57156,999,574,.13948E-1,.1212736E-1,0
STARLINK-5525,2023-094A,2026-07-11T21:40:02.650080,15.27572487,.0001035,43.0022,49.1171,271.2993,88.7740,0,U,57218,999,16611,-.24589E-4,-.938E-5,0
STARLINK-5520,2023-094B,2026-07-12T15:00:36.688896,15.27572547,.0001079,43.0028,48.4842,250.7685,109.3049,0,U,57219,999,16618,.61448E-4,.1429E-4,0
STARLINK-5880,2023-094C,2026-07-11T23:28:17.653440,15.27586434,.00008882,43.0045,52.2263,276.8827,83.1924,0,U,57220,999,16608,-.9757144E-5,-.531E-5,0
STARLINK-5870,2023-094E,2026-07-12T00:28:00.118848,15.27584735,.00011087,43.0035,48.2676,281.0983,78.9744,0,U,57222,999,16676,-.30676987E-4,-.1106E-4,0
STARLINK-5519,2023-094F,2026-07-12T05:19:02.403840,15.27572613,.0001065,42.9999,50.6202,269.9688,90.1041,0,U,57223,999,16612,-.22398E-4,-.878E-5,0
STARLINK-5983,2023-094G,2026-07-12T14:40:57.959616,15.27578139,.0001368,43.0013,44.9706,274.7424,85.3271,0,U,57224,999,16622,.8481E-5,-.29E-6,0
STARLINK-6294,2023-094H,2026-07-12T00:11:33.321984,15.27586430,.00016435,43.0033,49.0385,264.9206,95.1458,0,U,57225,999,16612,-.34212129E-4,-.1204E-4,0
STARLINK-6350,2023-094J,2026-07-11T23:51:12.027744,15.27578179,.00017036,43.0057,48.9347,266.6741,93.3916,0,U,57226,999,16612,.1321714E-4,.101E-5,0
STARLINK-5996,2023-094K,2026-07-12T00:42:06.107904,15.27571923,.0000643,42.9985,51.7490,345.1717,14.9115,0,U,57227,999,16609,.46160098E-4,.1008E-4,0
STARLINK-6230,2023-094L,2026-07-12T14:20:36.420000,15.27578337,.0001541,43.0031,44.8672,259.9996,100.0682,0,U,57228,999,16622,-.16257E-4,-.71E-5,0
STARLINK-6233,2023-094M,2026-07-11T23:56:45.551616,15.27579383,.00014052,43.0034,48.9679,284.0577,76.0119,0,U,57229,999,16612,-.4816233E-5,-.395E-5,0
STARLINK-6250,2023-094N,2026-07-12T15:42:01.346400,15.27577974,.0001792,43.0035,45.2917,269.6341,90.4305,0,U,57230,999,16622,-.16039E-4,-.704E-5,0
STARLINK-5840,2023-094P,2026-07-12T15:27:13.405824,15.27576306,.000066,43.0014,45.2104,237.1445,122.9343,0,U,57231,999,16622,-.18514E-4,-.771E-5,0
STARLINK-5872,2023-094Q,2026-07-11T23:38:15.232128,15.27580650,.00013848,43.0053,48.8595,269.9596,90.1097,0,U,57232,999,16678,.25502332E-4,.44E-5,0
STARLINK-5866,2023-094R,2026-07-11T23:28:59.773440,15.27574182,.00015602,43.0030,48.8221,264.2454,95.8220,0,U,57233,999,16612,.12399762E-4,.79E-6,0
STARLINK-6368,2023-094S,2026-07-12T00:26:09.182976,15.27582181,.00010282,43.0044,48.2471,264.4328,95.6406,0,U,57234,999,16613,-.9970448E-5,-.536E-5,0
STARLINK-6360,2023-094T,2026-07-12T15:05:00.635712,15.27578730,.0001434,43.0048,45.0973,265.4264,94.6424,0,U,57235,999,16622,.10794E-5,-.233E-5,0
STARLINK-6315,2023-094U,2026-07-12T19:16:15.199680,15.27573151,.000134,43.0046,33.3935,267.4888,92.5810,0,U,57236,999,16637,.33106E-5,-.171E-5,0
STARLINK-6365,2023-094V,2026-07-12T16:00:01.998720,15.27585618,.0001097,43.0009,44.7590,254.3760,5.5710,0,U,57237,999,576,-.16554E-3,-.4815E-4,0
STARLINK-6334,2023-094W,2026-07-12T13:19:58.527264,15.27582071,.00017933,43.0053,34.9660,275.1848,84.8799,0,U,57238,999,16633,.37973548E-4,.783E-5,0
STARLINK-6330,2023-094X,2026-07-12T00:31:41.939616,15.27573046,.00013313,43.0028,48.2782,260.5783,99.4918,0,U,57239,999,16613,.12643023E-4,.86E-6,0
STARLINK-6351,2023-094Y,2026-07-11T23:34:34.109472,15.27582565,.00015028,43.0041,37.5468,246.9832,113.0861,0,U,57240,999,16625,.35784603E-4,.723E-5,0
STARLINK-6349,2023-094Z,2026-07-11T22:57:46.366560,15.27571354,.00012524,43.0041,38.2229,268.4465,91.6243,0,U,57241,999,16624,-.45366572E-4,-.151E-4,0
